{
  "norad_id": 54082,
  "name": "STARLINK-5210",
  "history": [
    {
      "epoch": "2026-03-28T20:20:24.625536",
      "apogee_km": 540.657364031229,
      "perigee_km": 538.8107075369371,
      "latitude_deg": 52.66174651050048,
      "longitude_deg": 29.560695039806888,
      "semi_major_axis_km": 6917.871035784083,
      "eccentricity": 0.00013347,
      "inclination_deg": 53.2167,
      "raan_deg": 248.3022,
      "arg_perigee_deg": 91.4139,
      "mean_anomaly_deg": 268.7006,
      "mean_motion_rev_day": 15.0884306
    }
  ]
}